ONEWEB-0267             
1 48985U 21060U   24222.91981869  .00001543  00000+0  40024-2 0  9990
2 48985  87.9142   3.4169 0001432  90.8734 269.2561 13.16585573151890
ONEWEB-0268             
1 48986U 21060V   24223.42012227 -.00000047  00000+0 -15638-3 0  9995
2 48986  87.9142   3.3239 0001818  90.2448 269.8891 13.16593055152226
ONEWEB-0269             
1 48987U 21060W   24222.94516312  .00000025  00000+0  31292-4 0  9995
2 48987  87.9145   3.4453 0001900  95.5311 264.6036 13.16597893151944
ONEWEB-0270             
1 48988U 21060X   24223.41854462  .00000028  00000+0  38693-4 0  9995
2 48988  87.9140   3.3317 0001252 102.1185 258.0086 13.16592651152054
ONEWEB-0271             
1 48989U 21060Y   24222.94989500 -.00000251  00000+0 -68902-3 0  9990
2 48989  87.9142   3.4021 0001409  90.9682 269.1611 13.16593748151975
ONEWEB-0272             
1 48990U 21060Z   24223.35205774  .00000055  00000+0  11042-3 0  9995
2 48990  87.9144   3.3515 0001543  92.8861 267.2446 13.16595229151987
ONEWEB-0273             
1 48991U 21060AA  24222.91822663 -.00000108  00000+0 -31692-3 0  9993
2 48991  87.9143   3.4241 0001605 100.3045 259.8267 13.16592785151906
ONEWEB-0274             
1 48992U 21060AB  24222.94356892 -.00000133  00000+0 -38077-3 0  9995
2 48992  87.9149   3.4364 0001800  78.9713 281.1621 13.16594132151942
